{
  "type": "FeatureCollection",
  "features": [
    {
      "type": "Feature",
      "properties": {
        "norad_id": 39773,
        "name": "EUTELSAT 3B",
        "group": "eutelsat",
        "lat": -0.07927223871502076,
        "lon": -113.15004901264997,
        "alt_km": 35767.36155812026,
        "timestamp": "2025-12-11T10:53:15.557007+00:00",
        "meta_object_name": "EUTELSAT 3B",
        "meta_object_id": "2014-030A",
        "meta_epoch": "2025-12-10T23:49:46.953120",
        "meta_mean_motion": 1.00272013,
        "meta_eccentricity": 0.0004641,
        "meta_inclination": 0.0617,
        "meta_ra_of_asc_node": 345.4375,
        "meta_arg_of_pericenter": 243.1309,
        "meta_mean_anomaly": 211.9454,
        "meta_ephemeris_type": 0,
        "meta_classification_type": "U",
        "meta_norad_cat_id": 39773,
        "meta_element_set_no": 999,
        "meta_rev_at_epoch": 4218,
        "meta_bstar": 0,
        "meta_mean_motion_dot": 2.5e-07,
        "meta_mean_motion_ddot": 0,
        "tle_line1": "1 39773U 14030A   25344.99290455  .00000025  00000+0  00000+0 0  9993",
        "tle_line2": "2 39773   0.0617 345.4375 0004641 243.1309 211.9454  1.00272013 42180"
      },
      "geometry": {
        "type": "Point",
        "coordinates": [
          -113.15004901264997,
          -0.07927223871502076
        ]
      }
    },
    {
      "type": "Feature",
      "properties": {
        "norad_id": 40425,
        "name": "EUTELSAT 115 WEST B",
        "group": "eutelsat",
        "lat": -0.004293520935392127,
        "lon": 128.81441184761562,
        "alt_km": 35785.75498593984,
        "timestamp": "2025-12-11T10:53:15.557019+00:00",
        "meta_object_name": "EUTELSAT 115 WEST B",
        "meta_object_id": "2015-010B",
        "meta_epoch": "2025-12-10T23:16:05.181888",
        "meta_mean_motion": 1.00269045,
        "meta_eccentricity": 3.11e-05,
        "meta_inclination": 0.0085,
        "meta_ra_of_asc_node": 151.2991,
        "meta_arg_of_pericenter": 11.6564,
        "meta_mean_anomaly": 151.0992,
        "meta_ephemeris_type": 0,
        "meta_classification_type": "U",
        "meta_norad_cat_id": 40425,
        "meta_element_set_no": 999,
        "meta_rev_at_epoch": 3950,
        "meta_bstar": 0,
        "meta_mean_motion_dot": -1.9e-07,
        "meta_mean_motion_ddot": 0,
        "tle_line1": "1 40425U 15010B   25344.96950442 -.00000019  00000+0  00000+0 0  9998",
        "tle_line2": "2 40425   0.0085 151.2991 0000311  11.6564 151.0992  1.00269045 39507"
      },
      "geometry": {
        "type": "Point",
        "coordinates": [
          128.81441184761562,
          -0.004293520935392127
        ]
      }
    },
    {
      "type": "Feature",
      "properties": {
        "norad_id": 40875,
        "name": "EUTELSAT 8 WEST B",
        "group": "eutelsat",
        "lat": -0.06779609001984276,
        "lon": -124.280357939231,
        "alt_km": 35770.124933879255,
        "timestamp": "2025-12-11T10:53:15.557047+00:00",
        "meta_object_name": "EUTELSAT 8 WEST B",
        "meta_object_id": "2015-039B",
        "meta_epoch": "2025-12-11T03:11:59.032032",
        "meta_mean_motion": 1.0027158,
        "meta_eccentricity": 0.000419,
        "meta_inclination": 0.0649,
        "meta_ra_of_asc_node": 4.4095,
        "meta_arg_of_pericenter": 256.7362,
        "meta_mean_anomaly": 218.9643,
        "meta_ephemeris_type": 0,
        "meta_classification_type": "U",
        "meta_norad_cat_id": 40875,
        "meta_element_set_no": 999,
        "meta_rev_at_epoch": 3777,
        "meta_bstar": 0,
        "meta_mean_motion_dot": -6e-07,
        "meta_mean_motion_ddot": 0,
        "tle_line1": "1 40875U 15039B   25345.13332213 -.00000060  00000+0  00000+0 0  9994",
        "tle_line2": "2 40875   0.0649   4.4095 0004190 256.7362 218.9643  1.00271580 37773"
      },
      "geometry": {
        "type": "Point",
        "coordinates": [
          -124.280357939231,
          -0.06779609001984276
        ]
      }
    },
    {
      "type": "Feature",
      "properties": {
        "norad_id": 41310,
        "name": "EUTELSAT 9B",
        "group": "eutelsat",
        "lat": -0.024643969884884914,
        "lon": -107.2669899982677,
        "alt_km": 35765.96063944368,
        "timestamp": "2025-12-11T10:53:15.557062+00:00",
        "meta_object_name": "EUTELSAT 9B",
        "meta_object_id": "2016-005A",
        "meta_epoch": "2025-12-11T03:16:51.064896",
        "meta_mean_motion": 1.00272999,
        "meta_eccentricity": 0.0004801,
        "meta_inclination": 0.0411,
        "meta_ra_of_asc_node": 60.4885,
        "meta_arg_of_pericenter": 205.7857,
        "meta_mean_anomaly": 232.0598,
        "meta_ephemeris_type": 0,
        "meta_classification_type": "U",
        "meta_norad_cat_id": 41310,
        "meta_element_set_no": 999,
        "meta_rev_at_epoch": 3623,
        "meta_bstar": 0,
        "meta_mean_motion_dot": 6.8e-07,
        "meta_mean_motion_ddot": 0,
        "tle_line1": "1 41310U 16005A   25345.13670214  .00000068  00000+0  00000+0 0  9996",
        "tle_line2": "2 41310   0.0411  60.4885 0004801 205.7857 232.0598  1.00272999 36237"
      },
      "geometry": {
        "type": "Point",
        "coordinates": [
          -107.2669899982677,
          -0.024643969884884914
        ]
      }
    },
    {
      "type": "Feature",
      "properties": {
        "norad_id": 41382,
        "name": "EUTELSAT 65 WEST A",
        "group": "eutelsat",
        "lat": 0.005678641676405839,
        "lon": 178.49512834953467,
        "alt_km": 35785.68244078806,
        "timestamp": "2025-12-11T10:53:15.557075+00:00",
        "meta_object_name": "EUTELSAT 65 WEST A",
        "meta_object_id": "2016-014A",
        "meta_epoch": "2025-12-11T03:56:38.653728",
        "meta_mean_motion": 1.00272332,
        "meta_eccentricity": 0.0002574,
        "meta_inclination": 0.0508,
        "meta_ra_of_asc_node": 10.2619,
        "meta_arg_of_pericenter": 256.8419,
        "meta_mean_anomaly": 166.9855,
        "meta_ephemeris_type": 0,
        "meta_classification_type": "U",
        "meta_norad_cat_id": 41382,
        "meta_element_set_no": 999,
        "meta_rev_at_epoch": 3565,
        "meta_bstar": 0,
        "meta_mean_motion_dot": -2.7e-06,
        "meta_mean_motion_ddot": 0,
        "tle_line1": "1 41382U 16014A   25345.16433627 -.00000270  00000+0  00000+0 0  9999",
        "tle_line2": "2 41382   0.0508  10.2619 0002574 256.8419 166.9855  1.00272332 35654"
      },
      "geometry": {
        "type": "Point",
        "coordinates": [
          178.49512834953467,
          0.005678641676405839
        ]
      }
    },
    {
      "type": "Feature",
      "properties": {
        "norad_id": 41589,
        "name": "EUTELSAT 117 WEST B",
        "group": "eutelsat",
        "lat": -0.013164998804461262,
        "lon": 126.73516170807746,
        "alt_km": 35785.32810493901,
        "timestamp": "2025-12-11T10:53:15.557088+00:00",
        "meta_object_name": "EUTELSAT 117 WEST B",
        "meta_object_id": "2016-038B",
        "meta_epoch": "2025-12-10T23:15:27.743040",
        "meta_mean_motion": 1.00269754,
        "meta_eccentricity": 3.23e-05,
        "meta_inclination": 0.0411,
        "meta_ra_of_asc_node": 158.7318,
        "meta_arg_of_pericenter": 311.552,
        "meta_mean_anomaly": 201.5309,
        "meta_ephemeris_type": 0,
        "meta_classification_type": "U",
        "meta_norad_cat_id": 41589,
        "meta_element_set_no": 999,
        "meta_rev_at_epoch": 3477,
        "meta_bstar": 0,
        "meta_mean_motion_dot": -6e-08,
        "meta_mean_motion_ddot": 0,
        "tle_line1": "1 41589U 16038B   25344.96907110 -.00000006  00000+0  00000+0 0  9991",
        "tle_line2": "2 41589   0.0411 158.7318 0000323 311.5520 201.5309  1.00269754 34778"
      },
      "geometry": {
        "type": "Point",
        "coordinates": [
          126.73516170807746,
          -0.013164998804461262
        ]
      }
    },
    {
      "type": "Feature",
      "properties": {
        "norad_id": 42741,
        "name": "EUTELSAT 172B",
        "group": "eutelsat",
        "lat": 0.012197251621819147,
        "lon": 55.72003334700181,
        "alt_km": 35786.91321516889,
        "timestamp": "2025-12-11T10:53:15.557100+00:00",
        "meta_object_name": "EUTELSAT 172B",
        "meta_object_id": "2017-029B",
        "meta_epoch": "2025-12-11T03:42:38.635776",
        "meta_mean_motion": 1.00269624,
        "meta_eccentricity": 6.2e-06,
        "meta_inclination": 0.031,
        "meta_ra_of_asc_node": 156.9474,
        "meta_arg_of_pericenter": 103.8812,
        "meta_mean_anomaly": 46.9489,
        "meta_ephemeris_type": 0,
        "meta_classification_type": "U",
        "meta_norad_cat_id": 42741,
        "meta_element_set_no": 999,
        "meta_rev_at_epoch": 3184,
        "meta_bstar": 0,
        "meta_mean_motion_dot": 0,
        "meta_mean_motion_ddot": 0,
        "tle_line1": "1 42741U 17029B   25345.15461384  .00000000  00000+0  00000+0 0  9996",
        "tle_line2": "2 42741   0.0310 156.9474 0000062 103.8812  46.9489  1.00269624 31847"
      },
      "geometry": {
        "type": "Point",
        "coordinates": [
          55.72003334700181,
          0.012197251621819147
        ]
      }
    }
  ]
}